[
   {
      "name": "STARLINK-1057",
      "line1": "1 44762U 19074BB  21092.81325424 -.00000336  00000-0 -36946-5 0  9994",
      "line2": "2 44762  53.0567  15.5610 0001491  82.0770 278.0388 15.06392210 76882",
      "drg": -0.36946,
      "inc": 53.0567,
      "ran": 15.561,
      "ecc": 0.0001491,
      "aop": 82.077,
      "man": 278.0388,
      "mmo": 15.0639221,
      "sma": 6925.37243
   },
   {
      "name": "STARLINK-1058",
      "line1": "1 44763U 19074BC  21092.83352861  .00000615  00000-0  60202-4 0  9991",
      "line2": "2 44763  53.0583  35.4681 0001357  64.8350 295.2780 15.06398857 76614",
      "drg": 6.0202,
      "inc": 53.0583,
      "ran": 35.4681,
      "ecc": 0.0001357,
      "aop": 64.835,
      "man": 295.278,
      "mmo": 15.06398857,
      "sma": 6925.35206
   },
   {
      "name": "STARLINK-1059",
      "line1": "1 44764U 19074BD  21092.87591357  .00000764  00000-0  70175-4 0  9996",
      "line2": "2 44764  53.0578  15.2756 0001576  83.0455 277.0713 15.06396654 76897",
      "drg": 7.0175,
      "inc": 53.0578,
      "ran": 15.2756,
      "ecc": 0.0001576,
      "aop": 83.0455,
      "man": 277.0713,
      "mmo": 15.06396654,
      "sma": 6925.35881
   },
   {
      "name": "STARLINK-1060",
      "line1": "1 44765U 19074BE  21092.89434687 -.00000125  00000-0  10527-4 0  9998",
      "line2": "2 44765  53.0574  15.1940 0001544  77.4492 282.6670 15.06394476 76895",
      "drg": 1.0527,
      "inc": 53.0574,
      "ran": 15.194,
      "ecc": 0.0001544,
      "aop": 77.4492,
      "man": 282.667,
      "mmo": 15.06394476,
      "sma": 6925.36549
   },
   {
      "name": "STARLINK-1061",
      "line1": "1 44766U 19074BF  21092.82615511 -.00000748  00000-0 -31318-4 0  9992",
      "line2": "2 44766  53.0561  35.5039 0001393  89.9755 270.1394 15.06391919 76613",
      "drg": -3.1318,
      "inc": 53.0561,
      "ran": 35.5039,
      "ecc": 0.0001393,
      "aop": 89.9755,
      "man": 270.1394,
      "mmo": 15.06391919,
      "sma": 6925.37333
   },
   {
      "name": "STARLINK-1062",
      "line1": "1 44767U 19074BG  21092.55339265 -.00000373  00000-0 -61649-5 0  9997",
      "line2": "2 44767  53.0571  36.7260 0001502  69.7326 290.3824 15.06399167 76576",
      "drg": -0.61649,
      "inc": 53.0571,
      "ran": 36.726,
      "ecc": 0.0001502,
      "aop": 69.7326,
      "man": 290.3824,
      "mmo": 15.06399167,
      "sma": 6925.35111
   },
   {
      "name": "STARLINK-1063",
      "line1": "1 44768U 19074BH  21092.84090046 -.00000783  00000-0 -33709-4 0  9991",
      "line2": "2 44768  53.0591  35.4308 0001021  79.1651 280.9452 15.06395401 76625",
      "drg": -3.3709,
      "inc": 53.0591,
      "ran": 35.4308,
      "ecc": 0.0001021,
      "aop": 79.1651,
      "man": 280.9452,
      "mmo": 15.06395401,
      "sma": 6925.36265
   },
   {
      "name": "STARLINK-1064",
      "line1": "1 44769U 19074BJ  21092.83718606  .00000848  00000-0  77315-4 0  9991",
      "line2": "2 44769  53.0021  35.4438 0001592  68.2406 291.8751 15.05589672 76692",
      "drg": 7.7315,
      "inc": 53.0021,
      "ran": 35.4438,
      "ecc": 0.0001592,
      "aop": 68.2406,
      "man": 291.8751,
      "mmo": 15.05589672,
      "sma": 6927.83321
   },
   {
      "name": "STARLINK-1065",
      "line1": "1 44770U 19074BK  21092.55436487  .00003052  00000-0  21740-3 0  9996",
      "line2": "2 44770  53.0045  34.6448 0001578 101.7871 258.3295 15.07486791 76595",
      "drg": 21.74,
      "inc": 53.0045,
      "ran": 34.6448,
      "ecc": 0.0001578,
      "aop": 101.7871,
      "man": 258.3295,
      "mmo": 15.07486791,
      "sma": 6922.0197
   },
   {
      "name": "STARLINK-1067",
      "line1": "1 44771U 19074BL  21092.82984245 -.00000936  00000-0 -43951-4 0  9996",
      "line2": "2 44771  53.0571  35.4636 0001315  79.3199 280.7938 15.06392698 76617",
      "drg": -4.3951,
      "inc": 53.0571,
      "ran": 35.4636,
      "ecc": 0.0001315,
      "aop": 79.3199,
      "man": 280.7938,
      "mmo": 15.06392698,
      "sma": 6925.37094
   },
   {
      "name": "STARLINK-1068",
      "line1": "1 44772U 19074BM  21092.82062909  .00000824  00000-0  74213-4 0  9990",
      "line2": "2 44772  53.0560  15.5322 0001748  77.3100 282.8084 15.06392793 76887",
      "drg": 7.4213,
      "inc": 53.056,
      "ran": 15.5322,
      "ecc": 0.0001748,
      "aop": 77.31,
      "man": 282.8084,
      "mmo": 15.06392793,
      "sma": 6925.37065
   },
   {
      "name": "STARLINK-1073",
      "line1": "1 44914U 20001A   21092.90356687  .00001417  00000-0  11405-3 0  9990",
      "line2": "2 44914  53.0571 155.1254 0001263 126.6095 233.5010 15.06389722 68279",
      "drg": 11.405,
      "inc": 53.0571,
      "ran": 155.1254,
      "ecc": 0.0001263,
      "aop": 126.6095,
      "man": 233.501,
      "mmo": 15.06389722,
      "sma": 6925.38006
   },
   {
      "name": "STARLINK-1084",
      "line1": "1 44915U 20001B   21092.86670451  .00000798  00000-0  72448-4 0  9990",
      "line2": "2 44915  53.0592 155.2945 0000890 122.8688 237.2387 15.06406550 68279",
      "drg": 7.2448,
      "inc": 53.0592,
      "ran": 155.2945,
      "ecc": 8.9e-05,
      "aop": 122.8688,
      "man": 237.2387,
      "mmo": 15.0640655,
      "sma": 6925.32848
   },
   {
      "name": "STARLINK-1097",
      "line1": "1 44916U 20001C   21092.87776319 -.00000699  00000-0 -28047-4 0  9990",
      "line2": "2 44916  53.0577 155.2426 0000852  98.6675 261.4410 15.06395509 68278",
      "drg": -2.8047,
      "inc": 53.0577,
      "ran": 155.2426,
      "ecc": 8.52e-05,
      "aop": 98.6675,
      "man": 261.441,
      "mmo": 15.06395509,
      "sma": 6925.36232
   },
   {
      "name": "STARLINK-1098",
      "line1": "1 44917U 20001D   21092.87038948 -.00000816  00000-0 -35886-4 0  9990",
      "line2": "2 44917  53.0573 155.2756 0000984 122.9588 237.1496 15.06387780 68277",
      "drg": -3.5886,
      "inc": 53.0573,
      "ran": 155.2756,
      "ecc": 9.84e-05,
      "aop": 122.9588,
      "man": 237.1496,
      "mmo": 15.0638778,
      "sma": 6925.38601
   },
   {
      "name": "STARLINK-1099",
      "line1": "1 44918U 20001E   21092.88145047 -.00000996  00000-0 -48023-4 0  9997",
      "line2": "2 44918  53.0581 155.2248 0000992 115.2711 244.8381 15.06392619 69013",
      "drg": -4.8023,
      "inc": 53.0581,
      "ran": 155.2248,
      "ecc": 9.92e-05,
      "aop": 115.2711,
      "man": 244.8381,
      "mmo": 15.06392619,
      "sma": 6925.37118
   },
   {
      "name": "STARLINK-1101",
      "line1": "1 44919U 20001F   21092.89250440 -.00001258  00000-0 -65591-4 0  9994",
      "line2": "2 44919  53.0589 155.1768 0001061 124.0265 236.0825 15.06389017 68279",
      "drg": -6.5591,
      "inc": 53.0589,
      "ran": 155.1768,
      "ecc": 0.0001061,
      "aop": 124.0265,
      "man": 236.0825,
      "mmo": 15.06389017,
      "sma": 6925.38222
   },
   {
      "name": "STARLINK-1102",
      "line1": "1 44920U 20001G   21092.89618202  .00000790  00000-0  71911-4 0  9991",
      "line2": "2 44920  53.0581 155.1617 0000906 130.4299 229.6769 15.06398191 68279",
      "drg": 7.1911,
      "inc": 53.0581,
      "ran": 155.1617,
      "ecc": 9.06e-05,
      "aop": 130.4299,
      "man": 229.6769,
      "mmo": 15.06398191,
      "sma": 6925.3541
   },
   {
      "name": "STARLINK-1103",
      "line1": "1 44921U 20001H   21092.85615018  .00001101  00000-0  94721-4 0  9991",
      "line2": "2 44921  53.0013 155.3486 0001051 122.1261 237.9829 15.05584746 68265",
      "drg": 9.4721,
      "inc": 53.0013,
      "ran": 155.3486,
      "ecc": 0.0001051,
      "aop": 122.1261,
      "man": 237.9829,
      "mmo": 15.05584746,
      "sma": 6927.84832
   },
   {
      "name": "STARLINK-1104",
      "line1": "1 44922U 20001J   21092.88513487 -.00000866  00000-0 -39278-4 0  9997",
      "line2": "2 44922  53.0588 155.2073 0001066 132.7864 227.3215 15.06389775 68275",
      "drg": -3.9278,
      "inc": 53.0588,
      "ran": 155.2073,
      "ecc": 0.0001066,
      "aop": 132.7864,
      "man": 227.3215,
      "mmo": 15.06389775,
      "sma": 6925.3799
   },
   {
      "name": "STARLINK-1106",
      "line1": "1 44923U 20001K   21092.57919570  .00000651  00000-0  62566-4 0  9993",
      "line2": "2 44923  53.0586 156.5817 0001024  98.0910 262.0195 15.06400265 68220",
      "drg": 6.2566,
      "inc": 53.0586,
      "ran": 156.5817,
      "ecc": 0.0001024,
      "aop": 98.091,
      "man": 262.0195,
      "mmo": 15.06400265,
      "sma": 6925.34775
   },
   {
      "name": "STARLINK-1111",
      "line1": "1 44924U 20001L   21092.89987653  .00001053  00000-0  89535-4 0  9998",
      "line2": "2 44924  53.0580 155.1428 0001117 128.3947 231.7143 15.06399339 68278",
      "drg": 8.9535,
      "inc": 53.058,
      "ran": 155.1428,
      "ecc": 0.0001117,
      "aop": 128.3947,
      "man": 231.7143,
      "mmo": 15.06399339,
      "sma": 6925.35058
   },
   {
      "name": "STARLINK-1112",
      "line1": "1 44925U 20001M   21092.64923215  .00000854  00000-0  76214-4 0  9994",
      "line2": "2 44925  53.0599 156.2657 0000736 116.6011 243.5054 15.06398028 68235",
      "drg": 7.6214,
      "inc": 53.0599,
      "ran": 156.2657,
      "ecc": 7.36e-05,
      "aop": 116.6011,
      "man": 243.5054,
      "mmo": 15.06398028,
      "sma": 6925.3546
   },
   {
      "name": "STARLINK-1113",
      "line1": "1 44926U 20001N   21092.88603541  .00000335  00000-0  42158-4 0  9992",
      "line2": "2 44926  53.0006 155.2308 0001153 120.6679 239.4423 15.05584561 69019",
      "drg": 4.2158,
      "inc": 53.0006,
      "ran": 155.2308,
      "ecc": 0.0001153,
      "aop": 120.6679,
      "man": 239.4423,
      "mmo": 15.05584561,
      "sma": 6927.84889
   }
]